NORAD_CAT_ID,OBJECT_NAME,OBJECT_TYPE,EPOCH,MEAN_MOTION,ECCENTRICITY,INCLINATION,RA_OF_ASC_NODE,ARG_OF_PERICENTER,MEAN_ANOMALY,BSTAR,MEAN_MOTION_DOT,MEAN_MOTION_DDOT,TLE_LINE0,TLE_LINE1,TLE_LINE2,SEMIMAJOR_AXIS,PERIOD,APOGEE,PERIGEE,DECAYED
54061.0,STARLINK-5209,PAYLOAD,2023-01-28 22:00:00,15.49090858,8.49e-05,53.2146,10.4741,99.7639,226.9331,-0.017818,-0.00905547,0.0,0 STARLINK-5209,1 54061U 22136L   23028.91667824 -.00905547  00000-0 -17818-1 0  9996,2 54061  53.2146  10.4741 0000849  99.7639 226.9331 15.49090858  1309,6797.521,92.958,419.963,418.809,0.0
54061.0,STARLINK-5209,PAYLOAD,2023-01-29 08:00:01,15.48247861,0.0001186,53.2143,8.4886,81.8105,49.2276,-0.017457,-0.00853365,0.0,0 STARLINK-5209,1 54061U 22136L   23029.33334491 -.00853365  00000-0 -17457-1 0  9993,2 54061  53.2143   8.4886 0001186  81.8105  49.2276 15.48247861 16372,6799.989,93.008,422.66,421.047,0.0
54061.0,STARLINK-5209,PAYLOAD,2023-01-29 22:00:01,15.47141685,0.0001334,53.2141,5.7076,93.9278,49.1712,-0.019301,-0.00915261,0.0,0 STARLINK-5209,1 54061U 22136L   23029.91668981 -.00915261  00000-0 -19301-1 0  9995,2 54061  53.2141   5.7076 0001334  93.9278  49.1712 15.47141685 16461,6803.229,93.075,426.002,424.187,0.0
54061.0,STARLINK-5209,PAYLOAD,2023-01-30 14:00:01,15.45862399,0.0001263,53.214,2.5385,83.548,173.1314,-0.021511,-0.00970635,0.0,0 STARLINK-5209,1 54061U 22136L   23030.58334491 -.00970635  00000-0 -21511-1 0  9998,2 54061  53.2140   2.5385 0001263  83.5480 173.1314 15.45862399  1302,6806.982,93.152,429.707,427.988,0.0
54061.0,STARLINK-5209,PAYLOAD,2023-01-30 16:00:00,15.45657143,0.0001159,53.2142,2.1421,86.3182,274.362,-0.019986,-0.00901297,0.0,0 STARLINK-5209,1 54061U 22136L   23030.66667824 -.00901297  00000-0 -19986-1 0  9997,2 54061  53.2142   2.1421 0001159  86.3182 274.3620 15.45657143 16584,6807.585,93.164,430.239,428.661,0.0
54061.0,STARLINK-5209,PAYLOAD,2023-01-31 00:00:00,15.45049835,0.0001267,53.2143,0.5599,84.5233,331.5913,-0.021912,-0.00962176,0.0,0 STARLINK-5209,1 54061U 22136L   23031.00001157 -.00962176  00000-0 -21912-1 0  9992,2 54061  53.2143   0.5599 0001267  84.5233 331.5913 15.45049835  1308,6809.369,93.201,432.096,430.371,0.0
54061.0,STARLINK-5209,PAYLOAD,2023-01-31 14:00:01,15.43897398,0.0001261,53.2145,357.7949,77.6029,343.6822,-0.022491,-0.00950436,0.0,0 STARLINK-5209,1 54061U 22136L   23031.58334491 -.00950436  00000-0 -22491-1 0  9994,2 54061  53.2145 357.7949 0001261  77.6029 343.6822 15.43897398  1302,6812.757,93.27,435.481,433.763,0.0
54061.0,STARLINK-5209,PAYLOAD,2023-01-31 16:00:00,15.43696718,0.0001335,53.2147,357.3997,82.9549,81.7417,-0.020957,-0.00885049,0.0,0 STARLINK-5209,1 54061U 22136L   23031.66667824 -.00885049  00000-0 -20957-1 0  9994,2 54061  53.2147 357.3997 0001335  82.9549  81.7417 15.43696718 16748,6813.347,93.283,436.122,434.303,0.0
54061.0,STARLINK-5209,PAYLOAD,2023-01-31 22:00:00,15.43248037,0.0001428,53.2149,356.216,85.0681,29.5128,-0.022597,-0.00935415,0.0,0 STARLINK-5209,1 54061U 22136L   23031.91667824 -.00935415  00000-0 -22597-1 0  9997,2 54061  53.2149 356.2160 0001428  85.0681  29.5128 15.43248037  1306,6814.668,93.31,437.506,435.56,0.0
54061.0,STARLINK-5209,PAYLOAD,2023-02-01 06:00:00,15.42555102,0.0001496,53.2148,354.6414,77.2533,89.8625,-0.021418,-0.00871333,0.0,0 STARLINK-5209,1 54061U 22136L   23032.25001157 -.00871333  00000-0 -21418-1 0  9995,2 54061  53.2148 354.6414 0001496  77.2533  89.8625 15.42555102 16831,6816.708,93.352,439.593,437.554,0.0
54061.0,STARLINK-5209,PAYLOAD,2023-02-01 14:00:01,15.41937087,0.000143,53.2147,353.0652,85.5194,133.3298,-0.023704,-0.00938443,0.0,0 STARLINK-5209,1 54061U 22136L   23032.58334491 -.00938443  00000-0 -23704-1 0  9997,2 54061  53.2147 353.0652 0001430  85.5194 133.3298 15.41937087  1302,6818.53,93.389,441.37,439.42,0.0
54061.0,STARLINK-5209,PAYLOAD,2023-02-01 22:00:00,15.41299387,0.0001455,53.2147,351.4913,99.3898,170.4048,-0.024329,-0.00942431,0.0,0 STARLINK-5209,1 54061U 22136L   23032.91667824 -.00942431  00000-0 -24329-1 0  9999,2 54061  53.2147 351.4913 0001455  99.3898 170.4048 15.41299387 16939,6820.41,93.428,443.268,441.283,0.0
54061.0,STARLINK-5209,PAYLOAD,2023-02-02 14:00:01,15.39972961,0.0001326,53.2142,348.3496,93.4268,275.9467,-0.024728,-0.00918508,0.0,0 STARLINK-5209,1 54061U 22136L   23033.58334491 -.00918508  00000-0 -24728-1 0  9995,2 54061  53.2142 348.3496 0001326  93.4268 275.9467 15.39972961  1302,6824.326,93.508,447.096,445.286,0.0
54061.0,STARLINK-5209,PAYLOAD,2023-02-03 02:00:01,15.38996326,0.00014,53.2141,345.9981,95.112,166.8811,-0.025508,-0.00917461,0.0,0 STARLINK-5209,1 54061U 22136L   23034.08334491 -.00917461  00000-0 -25508-1 0  9995,2 54061  53.2141 345.9981 0001400  95.1120 166.8811 15.38996326 17119,6827.213,93.567,450.034,448.122,0.0
54061.0,STARLINK-5209,PAYLOAD,2023-02-03 14:00:01,15.38015629,0.0001402,53.2139,343.6482,92.5687,60.2869,-0.026095,-0.00909496,0.0,0 STARLINK-5209,1 54061U 22136L   23034.58334491 -.00909496  00000-0 -26095-1 0  9991,2 54061  53.2139 343.6482 0001402  92.5687  60.2869 15.38015629  1300,6830.115,93.627,452.937,451.022,0.0
54061.0,STARLINK-5209,PAYLOAD,2023-02-04 00:00:00,15.37221703,0.000133,53.214,341.6938,93.7985,206.7554,-0.027773,-0.00940375,0.0,0 STARLINK-5209,1 54061U 22136L   23035.00001157 -.00940375  00000-0 -27773-1 0  9994,2 54061  53.2140 341.6938 0001330  93.7985 206.7554 15.37221703  1309,6832.466,93.675,455.24,453.423,0.0
54061.0,STARLINK-5209,PAYLOAD,2023-02-04 10:00:00,15.36418442,0.0001334,53.2136,339.7419,75.862,11.169,-0.028887,-0.00951828,0.0,0 STARLINK-5209,1 54061U 22136L   23035.41667824 -.00951828  00000-0 -28887-1 0  9990,2 54061  53.2136 339.7419 0001334  75.8620  11.1690 15.36418442 17311,6834.848,93.724,457.624,455.801,0.0
54061.0,STARLINK-5209,PAYLOAD,2023-02-04 14:00:01,15.36061108,0.0001345,53.214,338.9606,92.1521,197.1442,-0.027711,-0.00906531,0.0,0 STARLINK-5209,1 54061U 22136L   23035.58334491 -.00906531  00000-0 -27711-1 0  9995,2 54061  53.2140 338.9606 0001345  92.1521 197.1442 15.36061108  1304,6835.908,93.746,458.692,456.853,0.0
54061.0,STARLINK-5209,PAYLOAD,2023-02-04 22:00:00,15.35440656,0.0001313,53.2143,337.4011,96.0968,237.1016,-0.029682,-0.00947945,0.0,0 STARLINK-5209,1 54061U 22136L   23035.91667824 -.00947945  00000-0 -29682-1 0  9994,2 54061  53.2143 337.4011 0001313  96.0968 237.1016 15.35440656  1304,6837.749,93.784,460.512,458.716,0.0
54061.0,STARLINK-5209,PAYLOAD,2023-02-05 06:00:00,15.34746643,0.0001306,53.2142,335.8449,80.7156,295.6282,-0.027791,-0.00874186,0.0,0 STARLINK-5209,1 54061U 22136L   23036.25001157 -.00874186  00000-0 -27791-1 0  9998,2 54061  53.2142 335.8449 0001306  80.7156 295.6282 15.34746643 17441,6839.81,93.827,462.568,460.782,0.0
54061.0,STARLINK-5209,PAYLOAD,2023-02-05 14:00:01,15.34100978,0.0001284,53.2144,334.2868,88.6862,330.0764,-0.029084,-0.00894398,0.0,0 STARLINK-5209,1 54061U 22136L   23036.58335648 -.00894398  00000-0 -29084-1 0  9993,2 54061  53.2144 334.2868 0001284  88.6862 330.0764 15.34100978  1309,6841.729,93.866,464.473,462.716,0.0
54061.0,STARLINK-5209,PAYLOAD,2023-02-05 22:00:00,15.33486032,0.0001384,53.2146,332.7322,89.6245,10.6281,-0.03161,-0.00948257,0.0,0 STARLINK-5209,1 54061U 22136L   23036.91667824 -.00948257  00000-0 -31610-1 0  9996,2 54061  53.2146 332.7322 0001384  89.6245  10.6281 15.33486032 17541,6843.558,93.904,466.37,464.476,0.0
54061.0,STARLINK-5209,PAYLOAD,2023-02-06 06:00:00,15.32767507,8.55e-05,53.2147,331.1802,96.6384,44.6317,-0.035332,-0.01042205,0.0,0 STARLINK-5209,1 54061U 22136L   23037.25001157 -.01042205  00000-0 -35332-1 0  9999,2 54061  53.2147 331.1802 0000855  96.6384  44.6317 15.32767507 17604,6845.697,93.948,468.147,466.976,0.0
54061.0,STARLINK-5209,PAYLOAD,2023-02-06 14:00:01,15.31966978,0.0001054,53.2148,329.627,105.419,75.7514,-0.022977,-0.00667361,0.0,0 STARLINK-5209,1 54061U 22136L   23037.58334491 -.00667361  00000-0 -22977-1 0  9991,2 54061  53.2148 329.6270 0001054 105.4190  75.7514 15.31966978 17653,6848.081,93.997,470.668,469.224,0.0
54061.0,STARLINK-5209,PAYLOAD,2023-02-06 22:00:00,15.3152444,0.0001353,53.215,328.0775,105.11,115.1576,-0.033137,-0.0093544,0.0,0 STARLINK-5209,1 54061U 22136L   23037.91667824 -.00935440  00000-0 -33137-1 0  9993,2 54061  53.2150 328.0775 0001353 105.1100 115.1576 15.31524440  1305,6849.4,94.024,472.192,470.339,0.0
54061.0,STARLINK-5209,PAYLOAD,2023-02-07 00:00:00,15.31346777,0.0001242,53.2149,327.6907,103.0573,216.8993,-0.032532,-0.00915051,0.0,0 STARLINK-5209,1 54061U 22136L   23038.00001157 -.00915051  00000-0 -32532-1 0  9999,2 54061  53.2149 327.6907 0001242 103.0573 216.8993 15.31346777 17712,6849.93,94.035,472.646,470.944,0.0
54061.0,STARLINK-5209,PAYLOAD,2023-02-07 14:00:01,15.30187418,0.0001373,53.2153,324.9815,105.4645,190.9138,-0.032321,-0.00879798,0.0,0 STARLINK-5209,1 54061U 22136L   23038.58334491 -.00879798  00000-0 -32321-1 0  9995,2 54061  53.2153 324.9815 0001373 105.4645 190.9138 15.30187418  1301,6853.39,94.106,476.196,474.314,0.0
54061.0,STARLINK-5209,PAYLOAD,2023-02-07 22:00:00,15.29574692,0.000137,53.2154,323.4365,104.1351,229.1037,-0.035493,-0.00954282,0.0,0 STARLINK-5209,1 54061U 22136L   23038.91667824 -.00954282  00000-0 -35493-1 0  9996,2 54061  53.2154 323.4365 0001370 104.1351 229.1037 15.29574692  1308,6855.22,94.144,478.024,476.146,0.0
54061.0,STARLINK-5209,PAYLOAD,2023-02-08 08:00:01,15.28762375,0.0001415,53.2151,321.5077,86.7828,21.445,-0.036143,-0.00948132,0.0,0 STARLINK-5209,1 54061U 22136L   23039.33334491 -.00948132  00000-0 -36143-1 0  9994,2 54061  53.2151 321.5077 0001415  86.7828  21.4450 15.28762375 17910,6857.648,94.194,480.483,478.543,0.0
54061.0,STARLINK-5209,PAYLOAD,2023-02-08 14:00:01,15.28233329,0.0001281,53.2154,320.3495,95.9181,308.738,-0.034291,-0.00878701,0.0,0 STARLINK-5209,1 54061U 22136L   23039.58334491 -.00878701  00000-0 -34291-1 0  9997,2 54061  53.2154 320.3495 0001281  95.9181 308.7380 15.28233329  1300,6859.23,94.226,481.974,480.217,0.0
